ESTCUBE 1               
1 39161U 13021C   22272.48882589  .00000994  00000+0  16173-3 0  9996
2 39161  97.9011 346.9925 0010767  85.9385 274.3072 14.73121851504788
FENGYUN 3C              
1 39260U 13052A   22272.78322786  .00000082  00000+0  62582-4 0  9995
2 39260  98.4491 295.5900 0010705 340.1996  19.8755 14.15945378466684
CASSIOPE                
1 39265U 13055A   22272.84247324  .00019184  00000+0  50327-3 0  9990
2 39265  80.9643 156.5183 0614251   8.4940 352.6081 14.40842327467355
ZACUBE-1 (TSHEPISOSAT)  
1 39417U 13066B   22272.85042578  .00002975  00000+0  36446-3 0  9992
2 39417  97.6489 239.7132 0058980  63.0674 297.6549 14.82652823478598
CINEMA-3 (KHUSAT-2)     
1 39426U 13066L   22271.79798096  .00001099  00000+0  17624-3 0  9990
2 39426  97.8036 207.2687 0101392 264.8063  94.1566 14.70340943474456
TRITON-1                
1 39427U 13066M   22272.54459444  .00002227  00000+0  35286-3 0  9994
2 39427  97.8159 203.8380 0109955 292.3550  66.6033 14.69240071474255
DELFI-N3XT              
1 39428U 13066N   22272.85264977  .00003821  00000+0  58829-3 0  9993
2 39428  97.8161 202.7531 0115312 304.5854  54.4516 14.69624050473862
GOMX-1                  
1 39430U 13066Q   22272.94891109  .00001242  00000+0  22753-3 0  9991
2 39430  97.7990 174.1428 0150331  75.4178 286.3649 14.60384077471543
BRITE-PL1 (LEM)         
1 39431U 13066R   22272.48291866  .00000531  00000+0  12312-3 0  9995
2 39431  97.6903 116.9058 0199943 266.3273  91.5039 14.47422364467416
ICUBE-1                 
1 39432U 13066S   22272.92181023  .00003225  00000+0  31752-3 0  9990
2 39432  97.4726 271.3213 0029019 275.4719  84.3191 14.92426788480282
HUMSAT-D                
1 39433U 13066T   22272.72038065  .00004092  00000+0  37679-3 0  9993
2 39433  97.4521 278.8410 0027162 247.4283 112.4064 14.94978797480791
VELOX-PII               
1 39438U 13066Y   22272.82233434  .00001767  00000+0  23541-3 0  9995
2 39438  97.7041 231.0486 0070518 116.1000 244.7491 14.79138001476430
FIRST-MOVE              
1 39439U 13066Z   22272.88346835  .00005832  00000+0  66811-3 0  9996
2 39439  97.6489 242.4176 0063728  57.3783 303.3561 14.84824903477549
CUBEBUG-2 (LO-74)       
1 39440U 13066AA  22272.70642793  .00001748  00000+0  24101-3 0  9999
2 39440  97.7367 225.9502 0078955 152.1857 208.3610 14.77287995475677
NEE-02 KRYSAOR          
1 39441U 13066AB  22272.39390605  .00001155  00000+0  16664-3 0  9994
2 39441  97.7475 222.7724 0080508 167.4749 192.8487 14.75945100475367
FUNCUBE-1 (AO-73)       
1 39444U 13066AE  22272.85645372  .00003777  00000+0  44886-3 0  9991
2 39444  97.6367 242.1413 0057590  50.9337 309.6982 14.83802753477000
HINCUBE                 
1 39445U 13066AF  22272.85442822  .00003631  00000+0  43388-3 0  9992
2 39445  97.6381 241.9487 0057717  53.1890 307.4600 14.83602097476949
UWE-3                   
1 39446U 13066AG  22272.88619728  .00002274  00000+0  29614-3 0  9995
2 39446  97.6978 232.5135 0069785 108.2862 252.5960 14.79854007475906
AIST-1 (RS-41)          
1 39492U 13078C   22272.78311216  .00000882  00000+0  91723-4 0  9993
2 39492  82.4186 136.7991 0020837 117.7463 242.5863 14.88601757475309
SPROUT                  
1 39770U 14029E   22272.91065389  .00007950  00000+0  78824-3 0  9990
2 39770  97.9505  30.6216 0009696 101.5654 258.6618 14.92032176453231
UNISAT-6                
1 40012U 14033C   22272.85369412  .00002055  00000+0  30375-3 0  9993
2 40012  97.6637  95.2690 0057138 179.5361 180.5912 14.75135948445370
BUGSAT-1 (TITA)         
1 40014U 14033E   22272.95083963  .00002396  00000+0  21149-3 0  9997
2 40014  98.1466 275.6664 0031722  53.3662 307.0469 14.97057960451772
DUCHIFAT-1              
1 40021U 14033M   22272.61403025  .00005391  00000+0  51734-3 0  9994
2 40021  98.0221 224.7908 0013890  61.0708 299.1902 14.93457615450248
NANOSATC-BR1            
1 40024U 14033Q   22272.83661868  .00003678  00000+0  36608-3 0  9991
2 40024  97.9931 217.8225 0013271  66.0160 294.2447 14.92209893449545
QB50P1                  
1 40025U 14033R   22272.56854945  .00003534  00000+0  36365-3 0  9993
2 40025  97.9654 210.8265 0013706  76.1051 284.1690 14.90898393449274
DTUSAT-2                
1 40030U 14033W   22272.59375087  .00002725  00000+0  28578-3 0  9995
2 40030  97.9403 205.8144 0013197  72.9218 287.3444 14.90322438449156
QB50P2                  
1 40032U 14033Y   22272.76932809  .00003559  00000+0  37168-3 0  9998
2 40032  97.9407 206.0054 0013172  73.6577 286.6087 14.90298715449159
POLYITAN-1              
1 40042U 14033AJ  22272.78007213  .00004544  00000+0  46428-3 0  9997
2 40042  97.9763 212.3789 0015886  68.0240 292.2664 14.91005955449190
TIGRISAT                
1 40043U 14033AK  22272.01341344  .00001390  00000+0  20717-3 0  9999
2 40043  97.6575  95.7087 0058958 179.6049 180.5218 14.75189847444897
AISAT                   
1 40054U 14034B   22272.56342895  .00003576  00000+0  47828-3 0  9994
2 40054  98.3666  88.2223 0012017 346.8053  13.2842 14.80119214444876
CANX-4                  
1 40055U 14034C   22272.70502670  .00000987  00000+0  15265-3 0  9993
2 40055  98.3693  73.1440 0014662  30.7426 329.4638 14.75572335444092
CANX-5                  
1 40056U 14034D   22272.44060949  .00000959  00000+0  14856-3 0  9997
2 40056  98.3693  72.8498 0014683  31.6111 328.5975 14.75567719434864
VELOX-I                 
1 40057U 14034E   22272.74683804  .00002052  00000+0  28208-3 0  9994
2 40057  98.3707  89.5198 0010544   2.4341 357.6927 14.79482263444894
METEOR-M 2              
1 40069U 14037A   22272.76668098  .00000029  00000+0  32579-4 0  9999
2 40069  98.4306 285.8071 0006259  29.8460 330.3071 14.20719727426675
DX1                     
1 40071U 14037C   22272.79031036  .00000763  00000+0  10358-3 0  9996
2 40071  98.3924 146.6384 0008318 351.1471   8.9592 14.82002082444791
UKUBE-1                 
1 40074U 14037F   22272.95488243  .00002176  00000+0  25753-3 0  9998
2 40074  98.3670 159.0287 0003946 333.1328  26.9687 14.85727987445589
FIREBIRD 3              
1 40377U 15003B   22271.62412689  .00024169  00000+0  66375-3 0  9993
2 40377  99.0825 159.7003 0095005  35.7677 324.9873 15.32734869424212
FIREBIRD 4              
1 40378U 15003C   22272.62197467  .00027362  00000+0  74736-3 0  9997
2 40378  99.0828 161.1591 0094734  31.9640 328.7295 15.32893853424377
GRIFEX                  
1 40379U 15003D   22272.90987909  .00013784  00000+0  46324-3 0  9992
2 40379  99.0951 146.2168 0112579  76.5148 284.8600 15.25024521423534
CP10 (EXOCUBE)          
1 40380U 15003E   22272.20585251  .00007652  00000+0  28506-3 0  9990
2 40380  99.1062 137.6490 0121497 104.5303 256.9441 15.21117928422921
DEORBITSAIL             
1 40719U 15032E   22272.59456665  .00002983  00000+0  41167-3 0  9996
2 40719  97.7659 147.4103 0016840  30.8148 329.4048 14.78782316389275
NUDT-PHONESAT           
1 40900U 15049B   22272.86497775  .00036034  00000+0  87132-3 0  9999
2 40900  97.3956 291.7264 0005357 257.8504 226.6522 15.41045069390660
XW-2A                   
1 40903U 15049E   22272.81058640  .00031121  00000+0  41815-3 0  9991
2 40903  97.1668 331.7192 0010300  96.8462 355.8948 15.57793501395484
XW-2C                   
1 40906U 15049H   22272.84703449  .00006284  00000+0  29412-3 0  9992
2 40906  97.4965 275.5072 0013754   3.6035 117.9827 15.20017235388770
XW-2D                   
1 40907U 15049J   22272.82162128  .00007264  00000+0  33187-3 0  9997
2 40907  97.4957 275.5617 0012469 359.6387 124.4873 15.20809627388827
LILACSAT-2              
1 40908U 15049K   22272.84702727  .00003481  00000+0  18259-3 0  9995
2 40908  97.5208 272.4560 0015663  21.7152  97.6812 15.16321025388300
XW-2E                   
1 40909U 15049L   22272.85095201  .00011506  00000+0  45988-3 0  9995
2 40909  97.4658 280.3745 0010381 338.7994 142.8797 15.25229847389315
XW-2F                   
1 40910U 15049M   22272.93690196  .00011575  00000+0  46994-3 0  9994
2 40910  97.4741 279.6204 0011315 338.5311  90.3258 15.24693005389094
XW-2B                   
1 40911U 15049N   22272.85409816  .00007247  00000+0  33228-3 0  9990
2 40911  97.4939 276.1597 0012639   0.9003 119.4153 15.20685549388714
KAITUO 1B               
1 40912U 15049P   22272.80509712  .00012870  00000+0  47219-3 0  9995
2 40912  97.4366 283.8380 0010081 297.7985 233.8924 15.28050767389677
TIANWANG 1A (TW-1A)     
1 40928U 15051D   22272.91367166  .00080000  00000+0  68036-3 0  9992
2 40928  97.0293 295.2328 0004423  24.6926  96.3742 15.69345704394560
LAPAN-A2                
1 40931U 15052B   22272.45085465  .00000968  00000+0  45381-4 0  9999
2 40931   5.9949 147.1514 0012616 204.4859 155.4928 14.76868098378746
LQSAT                   
1 40958U 15057A   22272.78353606  .00000357  00000+0  62332-4 0  9991
2 40958  97.7402 314.2761 0017797 349.2125  10.8688 14.73438307375341
ATHENOXAT 1             
1 41168U 15077C   22272.67012218  .00018934  00000+0  73754-3 0  9995
2 41168  14.9926  36.6337 0007500 273.2172 115.4925 15.23390379376215
GALASSIA                
1 41170U 15077E   22272.51776856  .00014675  00000+0  58533-3 0  9992
2 41170  14.9890  29.6329 0009905 294.1041  65.8245 15.22201885376090
VELOX-II                
1 41171U 15077F   22272.84065250  .00011270  00000+0  51550-3 0  9998
2 41171  14.9901 106.1923 0007349 123.4406 236.6618 15.17120293375542
CHUBUSAT-2              
1 41338U 16012B   22272.83420737  .00002982  00000+0  21721-3 0  9994
2 41338  31.0028  79.1180 0013064 108.2080 251.9979 15.01705369363184
CHUBUSAT-3              
1 41339U 16012C   22272.82244799  .00002193  00000+0  15778-3 0  9995
2 41339  31.0101  76.1030 0012828 115.0382 245.1600 15.01755624363181
HORYU-4                 
1 41340U 16012D   22272.73100119  .00005051  00000+0  35132-3 0  9996
2 41340  31.0050  52.9018 0012861 158.2846 201.8337 15.03878431363433
